{"spkid": "50672482", "covariance": {"epoch": "2458058.5", "labels": ["e", "q", "tp", "node", "peri", "i"], "data": [["4.909063777015557E-13", "-4.461029891918496E-13", "-5.40281399204925E-11", "-1.61235508112395E-12", "-9.218307968722158E-12", "1.981063722544319E-12"], ["-4.461029891918496E-13", "4.053896547099399E-13", "4.911932982170929E-11", "1.477950741483087E-12", "8.379874001660153E-12", "-1.789243687930273E-12"], ["-5.40281399204925E-11", "4.911932982170929E-11", "6.903125867472799E-9", "3.080353027626511E-10", "1.569296371194665E-9", "1.323864373070949E-11"], ["-1.61235508112395E-12", "1.477950741483087E-12", "3.080353027626511E-10", "1.82133106463179E-9", "-1.689366552007186E-9", "7.681330161259941E-10"], ["-9.218307968722158E-12", "8.379874001660153E-12", "1.569296371194665E-9", "-1.689366552007186E-9", "2.289195826213251E-9", "-6.460279598364856E-10"], ["1.981063722544319E-12", "-1.789243687930273E-12", "1.323864373070949E-11", "7.681330161259941E-10", "-6.460279598364856E-10", "4.789878819387125E-10"]], "elements": [{"label": "e", "units": null, "value": ".3580165868408351", "title": "eccentricity", "sigma": 7.00647113532594e-07, "name": "e"}, {"label": "q", "value": ".5792414548370834", "title": "perihelion distance", "units": "au", "name": "q", "sigma": 6.367021711208e-07}, {"label": "tp", "value": "2458154.117028586239", "title": "time of perihelion passage", "units": "TDB", "sigma": 8.30850520098098e-05, "name": "tp"}, {"label": "node", "name": "om", "sigma": 4.26770554822119e-05, "units": "deg", "title": "longitude of the ascending node", "value": "236.7756641062933"}, {"sigma": 4.78455413409991e-05, "name": "w", "units": "deg", "title": "argument of perihelion", "value": "150.7823138203566", "label": "peri"}, {"units": "deg", "title": "inclination", "value": "3.461871901931875", "name": "i", "sigma": 2.18857917823119e-05, "label": "i"}]}, "elements": [{"label": "e", "name": "e", "sigma": "6.9964E-7", "title": "eccentricity", "value": ".3577193660330338", "units": null}, {"name": "a", "sigma": "2.0963E-9", "units": "au", "title": "semi-major axis", "value": ".9029298766652426", "label": "a"}, {"label": "q", "name": "q", "sigma": "6.3092E-7", "units": "au", "title": "perihelion distance", "value": ".5799343736122666"}, {"name": "i", "sigma": "2.1875E-5", "value": "3.457076956790461", "title": "inclination; angle with respect to x-y ecliptic plane", "units": "deg", "label": "i"}, {"label": "node", "name": "om", "sigma": "4.3706E-5", "value": "236.5629954409052", "title": "longitude of the ascending node", "units": "deg"}, {"label": "peri", "value": "150.9005024628141", "title": "argument of perihelion", "units": "deg", "sigma": "4.6954E-5", "name": "w"}, {"name": "ma", "sigma": ".00010899", "title": "mean anomaly", "value": "261.47130404119", "units": "deg", "label": "M"}, {"label": "tp", "units": "TDB", "title": "time of perihelion passage", "value": "2461286.270846473106", "sigma": "9.4657E-5", "name": "tp"}, {"units": "d", "title": "sidereal orbital period", "value": "313.3859068146653", "sigma": "1.0914E-6", "name": "per", "label": "period"}, {"units": "deg/d", "title": "mean motion", "value": "1.148743425188236", "name": "n", "sigma": "4.0005E-9", "label": "n"}, {"title": "aphelion distance", "value": "1.225925379718219", "units": "au", "sigma": "2.8462E-9", "name": "ad", "label": "Q"}], "epoch": "2461200.5"}